{"spkid": "50696464", "covariance": {"epoch": "2458335.5", "elements": [{"title": "eccentricity", "value": ".7520024167060788", "units": null, "name": "e", "sigma": 4.85376565082946e-08, "label": "e"}, {"label": "q", "name": "q", "sigma": 1.14807572036061e-07, "title": "perihelion distance", "value": ".560548726746722", "units": "au"}, {"sigma": 2.46165033198555e-05, "name": "tp", "value": "2458296.136713288993", "title": "time of perihelion passage", "units": "TDB", "label": "tp"}, {"units": "deg", "title": "longitude of the ascending node", "value": "218.9646411564996", "sigma": 0.000237061229970752, "name": "om", "label": "node"}, {"label": "peri", "units": "deg", "title": "argument of perihelion", "value": "308.5711028340647", "name": "w", "sigma": 0.000229637043368443}, {"label": "i", "name": "i", "sigma": 1.88036033942201e-05, "units": "deg", "value": "2.308590402683356", "title": "inclination"}], "data": [["2.355904099317192E-15", "-5.570286849824518E-15", "-1.087230893180907E-12", "7.497730044295463E-12", "-7.005408739588362E-12", "7.280270037698422E-13"], ["-5.570286849824518E-15", "1.31807785968153E-14", "2.589894535397741E-12", "-1.791453025305576E-11", "1.67384435131423E-11", "-1.740878809389407E-12"], ["-1.087230893180907E-12", "2.589894535397741E-12", "6.059722356964547E-10", "-4.03733747664087E-9", "3.799438039165591E-9", "-3.852890950126456E-10"], ["7.497730044295463E-12", "-1.791453025305576E-11", "-4.03733747664087E-9", "5.619802675524566E-8", "-5.439949449310332E-8", "4.149632815131269E-9"], ["-7.005408739588362E-12", "1.67384435131423E-11", "3.799438039165591E-9", "-5.439949449310332E-8", "5.273317168700024E-8", "-3.974521752144148E-9"], ["7.280270037698422E-13", "-1.740878809389407E-12", "-3.852890950126456E-10", "4.149632815131269E-9", "-3.974521752144148E-9", "3.535755006071247E-10"]], "labels": ["e", "q", "tp", "node", "peri", "i"]}, "elements": [{"label": "e", "name": "e", "sigma": "4.7404E-8", "value": ".7509979898926444", "title": "eccentricity", "units": null}, {"sigma": "1.7469E-8", "name": "a", "units": "au", "value": "2.262858745780493", "title": "semi-major axis", "label": "a"}, {"label": "q", "sigma": "1.1075E-7", "name": "q", "value": ".5634563762883521", "title": "perihelion distance", "units": "au"}, {"sigma": "1.8803E-5", "name": "i", "units": "deg", "value": "2.312916667043244", "title": "inclination; angle with respect to x-y ecliptic plane", "label": "i"}, {"label": "node", "name": "om", "sigma": ".00023679", "units": "deg", "title": "longitude of the ascending node", "value": "218.7150833327977"}, {"label": "peri", "name": "w", "sigma": ".00022931", "title": "argument of perihelion", "value": "308.7757735442472", "units": "deg"}, {"sigma": "1.8871E-5", "name": "ma", "title": "mean anomaly", "value": "122.2263361958381", "units": "deg", "label": "M"}, {"label": "tp", "units": "TDB", "title": "time of perihelion passage", "value": "2460778.369349356794", "sigma": "6.0417E-5", "name": "tp"}, {"title": "sidereal orbital period", "value": "1243.324793668558", "units": "d", "name": "per", "sigma": "1.4398E-5", "label": "period"}, {"label": "n", "sigma": "3.353E-9", "name": "n", "units": "deg/d", "title": "mean motion", "value": ".2895462246335352"}, {"units": "au", "title": "aphelion distance", "value": "3.962261115272633", "name": "ad", "sigma": "3.0589E-8", "label": "Q"}], "epoch": "2461200.5"}